ONEWEB-0395             
1 50475U 21132G   25317.24716450 -.00000383  00000+0 -11158-2 0  9990
2 50475  87.8860  64.0787 0001535  93.1572 266.9732 13.11414870187419
ONEWEB-0396             
1 50476U 21132H   25317.22259699 -.00000023  00000+0 -92214-4 0  9991
2 50476  87.9218  18.3449 0001651 101.1069 259.0249 13.18687427193178
ONEWEB-0397             
1 50477U 21132J   25317.16155426  .00000119  00000+0  26845-3 0  9998
2 50477  87.9220  18.3575 0001738 106.0602 254.0721 13.18684192193148
ONEWEB-0398             
1 50478U 21132K   25317.21496777  .00000642  00000+0  17765-2 0  9993
2 50478  87.8865  64.0555 0001700  88.1728 271.9595 13.11418533187302
ONEWEB-0399             
1 50479U 21132L   25317.27770041  .00000311  00000+0  84071-3 0  9997
2 50479  87.8858  64.0595 0001098 113.6670 246.4574 13.11418750187304
ONEWEB-0400             
1 50480U 21132M   25317.14011184  .00000012  00000+0 -33693-5 0  9996
2 50480  87.9219  18.3515 0001825  94.4859 265.6481 13.18687926193133
ONEWEB-0401             
1 50481U 21132N   25317.18466018 -.00000007  00000+0 -49667-4 0  9993
2 50481  87.9215  18.3398 0001842 105.8870 254.2465 13.18688319193142
ONEWEB-0402             
1 50482U 21132P   25317.22424321  .00000049  00000+0  92586-4 0  9992
2 50482  87.9217  18.3244 0002113 116.6233 243.5116 13.18687577193172
